{"fetched_at":"2026-03-30T06:02:59Z","count":15439,"tles":[{"name":"SEMI-1N","line1":"1 66297U 25248E   26087.65554233  .00006593  00000+0  29437-3 0  9997","line2":"2 66297  45.4047 191.1592 0011435 306.1897  53.7932 15.22118983 22285","category":"Other"}]}