{
  "norad_id": 66297,
  "name": "SEMI-1N",
  "history": [
    {
      "epoch": "2026-03-28T15:43:58.857312",
      "apogee_km": 507.31508105212197,
      "perigee_km": 491.58535132997076,
      "latitude_deg": 34.551842350029894,
      "longitude_deg": 152.63206367986277,
      "semi_major_axis_km": 6877.587216191046,
      "eccentricity": 0.00114355,
      "inclination_deg": 45.4047,
      "raan_deg": 191.1592,
      "arg_perigee_deg": 306.1897,
      "mean_anomaly_deg": 53.7932,
      "mean_motion_rev_day": 15.22118983
    }
  ]
}